#cP2017  6 13  0  0  0.00000000      96 ORBIT IGS14 HLM  IGS
## 1953 172800.00000000   900.00000000 57917 0.0000000000000
+   32   G01G02G03G04G05G06G07G08G09G10G11G12G13G14G15G16G17
+        G18G19G20G21G22G23G24G25G26G27G28G29G30G31G32  0  0
+          0  0  0  0  0  0  0  0  0  0  0  0  0  0  0  0  0
+          0  0  0  0  0  0  0  0  0  0  0  0  0  0  0  0  0
+          0  0  0  0  0  0  0  0  0  0  0  0  0  0  0  0  0
++         2  2  2  0  2  2  2  2  3  2  2  2  3  2  3  2  2
++         2  2  2  2  2  2  2  3  2  2  2  2  2  2  2  0  0
++         0  0  0  0  0  0  0  0  0  0  0  0  0  0  0  0  0
++         0  0  0  0  0  0  0  0  0  0  0  0  0  0  0  0  0
++         0  0  0  0  0  0  0  0  0  0  0  0  0  0  0  0  0
%c G  cc GPS ccc cccc cccc cccc cccc ccccc ccccc ccccc ccccc
%c cc cc ccc ccc cccc cccc cccc cccc ccccc ccccc ccccc ccccc
%f  1.2500000  1.025000000  0.00000000000  0.000000000000000
%f  0.0000000  0.000000000  0.00000000000  0.000000000000000
%i    0    0    0    0      0      0      0      0         0
%i    0    0    0    0      0      0      0      0         0
/* RAPID ORBIT COMBINATION FROM WEIGHTED AVERAGE OF:        
/* cod emr esa gfz jpl ngs sio usn                          
/* REFERENCED TO IGS TIME (IGST) AND TO WEIGHTED MEAN POLE: 
/* PCV:IGS14_1930 OL/AL:FES2004  NONE     Y  ORB:CMB CLK:CMB
*  2017  6 13 14 15  0.00000000
PG01  -2838.854045 -14866.796766 -21933.037917     55.836568  7  5  3 109       
PG02 -17539.532162  15408.520365  12868.552699    399.318735  7  7  5  97       
PG03 -11418.755317 -21637.814832 -10383.629754    -94.991552  8  6  7 122       
PG04  22081.695140  -9766.451190  10684.895424 999999.999999
PG05  -7707.991526  13812.027008  21232.259012    -41.652021  5  3  3 100       
PG06 -25827.486593   6071.733802  -1408.174950    363.846821  4  4  6 101       
PG07 -17689.566567  -8659.866644  18201.287468    340.256511  4  5  7 121       
PG08   5619.457382 -25866.340245  -1346.544381    -63.016560  7  4  6  92       
PG09 -10225.337618 -15177.372305  19222.592297    383.888577  5  4  4  98       
PG10  21183.549947   6423.539536 -14731.989864    -26.244860  8  6  5 107       
PG11   1603.179594 -19678.263379 -18364.310434   -695.034296  7  5  6 104       
PG12   6072.832177  21408.024408 -14820.015998    381.464904  6  4  6  78       
PG13 -12261.675667  23182.548788   4243.690956    -85.135840 10  9  7 130       
PG14  16566.874605 -11044.444152 -17219.130359    -74.218865  8  8  2 102       
PG15   -542.269878  25774.450821  -5692.553938   -351.649700 10  8  7  40       
PG16   9029.855525 -11618.638064  21949.383759     34.787593 10  6  7 115       
PG17 -15347.782662   1253.341888 -21260.263005   -174.924653  8  5  4 113       
PG18  21779.443188  14096.235981  -5566.194682    619.855415  7  4  9 108       
PG19 -16871.925108   9937.481578 -18347.468831   -499.892923  7  7  5  70       
PG20   8085.773667  20652.991243  14475.329373    475.962180  6  6  5  87       
PG21  21649.754402   5008.464579  15413.117236   -501.141196  8  7  5  75       
PG22  -3249.615448 -20090.188460 -16793.471029    -21.297852  8  4  7 111       
PG23  -3324.762162 -23163.281267  12382.641030   -213.491885  8  7  8  96       
PG24     96.959627  16012.281053 -21247.444546    -36.159274  8  4  7  78       
PG25  17089.179086  20240.530485  -3300.881567   -404.102412  5  4  4  92       
PG26  16695.968177  -3706.060349  20337.771634   -491.531405  5  6  6 100       
PG27  12380.855138 -21199.750607   9794.191185    275.046926  7  7  7 111       
PG28 -20283.647320 -11498.936869 -12087.455743    620.645094  8  8  7  95       
PG29   6871.817699  18090.001799  18195.257125    595.419903  3  1  3  83       
PG30 -25266.739715   -876.048255   8366.933911    154.055497  8  7  6 125       
PG31  25887.553420  -6792.447676    922.418696    194.950064  9  4  6 106       
PG32  16036.617317  -3454.929423 -20856.638501   -439.182339  4  3  5  92       
*  2017  6 13 14 30  0.00000000
PG01   -466.091906 -15542.760430 -21615.299896     55.836865  8  4  3 103       
PG02 -18830.675442  15599.138988  10471.624876    399.311547  7  7  5 103       
PG03 -10301.643915 -20892.896142 -12794.578367    -94.989308  8  6  7 112       
PG04  23140.198967  -9726.255988   8019.588941 999999.999999
PG05  -9564.978605  12185.887722  21488.509814    -41.650694  5  5  4  91       
PG06 -25585.043747   5752.998659  -4252.482034    363.851358  3  5  5 113       
PG07 -15681.025993  -9335.012895  19627.026717    340.252554  3  5  6 110       
PG08   5858.294670 -25808.775898   1527.317238    -63.018025  7  5  6 106       
PG09  -9629.661493 -17219.410975  17753.944638    383.895896  5  4  4  94       
PG10  22195.832796   7626.222755 -12515.559464    -26.234331  8  6  6  91       
PG11   3227.197567 -20753.143349 -16864.814592   -695.036731  7  5  6 119       
PG12   4771.161753  20200.189664 -16856.049355    381.463903  7  4  6  96       
PG13 -12249.536441  22490.384204   7017.171926    -85.137071  9  9  7 135       
PG14  16082.435846  -8978.130771 -18797.902372    -74.219889  8  8  3  95       
PG15   -977.285352  26195.979869  -2939.412312   -351.650466 10  9  7  93       
PG16  10769.712473  -9763.329008  22102.129540     34.788072 10  7  7 122       
PG17 -14701.394005  -1196.296081 -21721.370301   -174.923059  8  5  5 123       
PG18  21975.463462  14708.766052  -2849.559726    619.857301  7  4  9 108       
PG19 -16283.625841   7900.713912 -19808.816058   -499.891584  8  7  5  89       
PG20   6509.686073  19755.097238  16378.389438    475.963621  5  7  5  85       
PG21  20064.274921   5755.157591  17271.970394   -501.139239  7  7  5  90       
PG22  -1540.047563 -18910.569878 -18320.309559    -21.308753  8  4  7 105       
PG23  -2776.236332 -24334.445698   9949.764333   -213.492451  9  8  8 102       
PG24  -2183.804398  16709.349833 -20563.700503    -36.160396  8  4  7  87       
PG25  16584.030745  20023.795614  -6109.408106   -404.108312  5  5  4  74       
PG26  18299.073481  -2110.511044  19160.534785   -491.526214  4  6  6 110       
PG27  12296.219455 -19910.217441  12294.990002    275.053188  7  7  7 109       
PG28 -21048.951888 -12589.579358  -9557.351276    620.647753  7  8  8 111       
PG29   6202.291171  19953.070589  16403.438513    595.416644  3  2  4  85       
PG30 -24256.761696  -1379.252899  10892.041101    154.054304  8  6  6 117       
PG31  25880.183371  -6576.041357  -1922.254135    194.947461  9  5  6 107       
PG32  15565.769747  -1072.354375 -21466.993305   -439.190786  3  3  5  89       
*  2017  6 13 14 45  0.00000000
PG01   1816.717750 -16325.815501 -20928.438758     55.837179  8  3  4  99       
PG02 -19857.876401  15741.669192   7895.332341    399.304118  7  8  6  90       
PG03  -8946.735305 -20041.004610 -14985.749378    -94.987100  8  7  7  97       
PG04  23895.901571  -9675.549054   5213.001756 999999.999999
PG05 -11504.854815  10650.110552  21372.094162    -41.649371  6  6  4  98       
PG06 -25062.171538   5309.645344  -7023.647922    363.855977  4  6  5  84       
PG07 -13575.846944 -10164.121099  20723.994777    340.248547  3  6  6  81       
PG08   6048.619514 -25443.127877   4374.745626    -63.018740  7  6  6  85       
PG09  -9167.464499 -19107.744326  15979.130335    383.903212  5  3  3 106       
PG10  23066.286111   8607.130025 -10084.642924    -26.223835  8  7  6  73       
PG11   4673.868144 -21776.254698 -15087.048228   -695.039118  6  5  6 119       
PG12   3246.171771  18923.885832 -18607.755190    381.463144  8  5  6  70       
PG13 -12189.278395  21502.385021   9669.780268    -85.138240  9  9  7 121       
PG14  15665.799915  -6732.233201 -20044.196957    -74.221442  7  7  3 100       
PG15  -1363.223055  26323.356119   -134.648131   -351.650678 10  9  8  79       
PG16  12605.016833  -8014.744174  21869.993403     34.788846 10  7  7 112       
PG17 -14182.074117  -3706.371767 -21795.632796   -174.921552  8  5  5  96       
PG18  21956.187729  15120.564196    -84.023010    619.858580  8  5  8  71       
PG19 -15772.189475   5693.631739 -20939.535469   -499.890249  8  8  5  67       
PG20   4727.839366  18819.195794  17996.849890    475.964461  5  7  5  78       
PG21  18347.241198   6650.252858  18850.761324   -501.137207  7  7  5  87       
PG22    346.026790 -17715.901658 -19525.202722    -21.319917  8  4  7 113       
PG23  -2328.346697 -25250.526639   7343.261049   -213.493172  9  8  8  62       
PG24  -4339.779600  17482.874986 -19527.162523    -36.160320  7  4  7  88       
PG25  15829.449643  19636.618899  -8814.521441   -404.114203  6  5  3 100       
PG26  19864.135044   -695.974428  17654.279503   -491.520999  3  6  6  71       
PG27  12236.947076 -18348.892870  14581.169024    275.059421  7  7  7  81       
PG28 -21658.561982 -13421.217777  -6858.228175    620.650642  6  8  8 102       
PG29   5685.708764  21636.308462  14329.468523    595.413403  4     4  77       
PG30 -23010.959988  -2013.052645  13231.060899    154.053105  8  6  6  72       
PG31  25583.800612  -6257.303391  -4734.606781    194.945504  8  5  6 109       
PG32  15210.722970   1378.411819 -21707.055094   -439.199194  3  2  5  84       
EOF
